OBJECT_NAME,OBJECT_ID,EPOCH,MEAN_MOTION,ECCENTRICITY,INCLINATION,RA_OF_ASC_NODE,ARG_OF_PERICENTER,MEAN_ANOMALY,EPHEMERIS_TYPE,CLASSIFICATION_TYPE,NORAD_CAT_ID,ELEMENT_SET_NO,REV_AT_EPOCH,BSTAR,MEAN_MOTION_DOT,MEAN_MOTION_DDOT
INTELSAT 902 (IS-902),2001-039A,2026-07-23T01:57:38.530080,1.00272197,.00042651,6.2041,71.3386,50.8048,157.9936,0,U,26900,999,9105,0,-.284E-5,0
INTELSAT 904 (IS-904),2002-007A,2026-07-23T01:41:38.899104,1.00273562,.00052329,7.0068,68.7492,29.7760,196.2260,0,U,27380,999,5212,0,-.227E-5,0
DIRECTV 5 (TEMPO 1),2002-023A,2026-07-23T06:46:42.372768,1.00272258,.00032265,4.9672,74.8569,45.0735,172.6515,0,U,27426,999,8848,0,-.57E-6,0
INTELSAT 905 (IS-905),2002-027A,2026-07-23T06:41:44.647872,1.00273017,.00036067,6.8414,69.3598,51.5550,143.3283,0,U,27438,999,5172,0,.92E-6,0
GALAXY 3C (G-3C),2002-030A,2026-07-23T07:40:47.377920,1.00271479,.00018661,3.8250,77.5112,29.6482,214.2448,0,U,27445,999,4685,0,-.152E-5,0
INTELSAT 906 (IS-906),2002-041A,2026-07-23T03:01:29.031744,1.00271514,.00034037,5.8901,72.4726,32.5508,305.3618,0,U,27513,999,8738,0,.12E-6,0
GALAXY 13 (HORIZONS-1),2003-044A,2026-07-22T17:27:08.048736,1.00274659,.00020746,1.5078,83.3980,44.1505,284.7210,0,U,27954,999,4692,0,.135E-5,0
INTELSAT 10-02,2004-022A,2026-07-23T01:00:16.416288,1.00272395,.00002119,0.0588,253.9699,257.9608,162.9160,0,U,28358,999,8091,0,-.7E-7,0
DIRECTV 8,2005-019A,2026-07-23T07:28:39.171936,1.00271139,.00032113,0.0133,80.7173,44.0931,169.3472,0,U,28659,999,7743,0,.6E-7,0
GALAXY 28 (G-28),2005-022A,2026-07-23T06:00:43.983648,1.00271632,.00023109,3.3881,78.4837,42.2649,243.3220,0,U,28702,999,5233,0,-.199E-5,0
GALAXY 16 (G-16),2006-023A,2026-07-23T07:37:44.006016,1.00272782,.00028359,0.0268,126.7087,356.0510,193.7179,0,U,29236,999,7333,0,-.122E-5,0
DIRECTV 9S,2006-043A,2026-07-23T06:48:26.133120,1.00271930,.00052185,2.5112,80.4673,35.2690,186.1854,0,U,29494,999,5174,0,-.111E-5,0
GALAXY 17 (G-17),2007-016B,2026-07-23T06:54:15.578784,1.00272219,.00035472,3.0600,79.4460,35.0280,205.0951,0,U,31307,999,7016,0,-.205E-5,0
INTELSAT 11 (IS-11),2007-044B,2026-07-23T02:34:01.663680,0.99051899,.00046854,3.6562,78.2292,98.7006,130.2930,0,U,32253,999,6880,0,-.239E-5,0
HORIZONS-2,2007-063B,2026-07-23T06:59:15.913824,1.00271930,.0003694,2.6925,80.1837,21.8161,230.0436,0,U,32388,999,6817,0,-.251E-5,0
DIRECTV 11,2008-013A,2026-07-23T07:37:44.018112,1.00271967,.00002031,0.0116,275.0098,171.5368,229.7433,0,U,32729,999,4595,0,-.121E-5,0
GALAXY 18 (G-18),2008-024A,2026-07-22T19:04:38.428608,1.00273574,.00031528,0.0189,52.6571,74.3921,336.6648,0,U,32951,999,4621,0,0,0
GALAXY 19 (G-19),2008-045A,2026-07-23T07:38:41.784288,1.00271711,.00027353,0.0611,250.1988,244.1926,184.3265,0,U,33376,999,6526,0,-.134E-5,0
FM-5,2009-034A,2026-07-23T00:35:56.976000,1.00269883,.00008464,0.0406,259.5463,130.3836,193.6336,0,U,35493,999,4700,0,-.195E-5,0
INTELSAT 14 (IS-14),2009-064A,2026-07-23T05:55:36.974208,1.00271127,.00025773,0.0165,55.4369,69.1356,220.3047,0,U,36097,999,6096,0,-.269E-5,0
INTELSAT 15 (IS-15),2009-067A,2026-07-23T03:07:28.458336,1.00272165,.00023967,0.0153,54.2150,66.5369,312.1333,0,U,36106,999,4158,0,-.181E-5,0
DIRECTV 12,2009-075A,2026-07-23T06:47:45.708288,1.00270589,.00003534,0.0211,190.5052,356.4766,113.2508,0,U,36131,999,4691,0,-.99E-6,0
INTELSAT 16 (IS-16),2010-006A,2026-07-23T06:22:38.754912,1.00272126,.00021502,0.0097,359.0792,119.8103,201.5715,0,U,36397,999,6001,0,-.24E-5,0
XM-5,2010-053A,2026-07-23T07:49:18.079680,1.00271189,.00013272,0.0616,262.9774,309.4997,90.7012,0,U,37185,999,5784,0,-.18E-6,0
INTELSAT 17 (IS-17),2010-065B,2026-07-23T03:01:58.984032,1.00272272,.00023963,0.0172,101.0219,20.7888,290.5478,0,U,37238,999,5360,0,.3E-7,0
INTELSAT 28 (IS-28),2011-016A,2026-07-23T05:59:21.615072,1.00271117,.00040277,1.8967,82.1851,44.0862,232.8386,0,U,37392,999,5364,0,-.222E-5,0
INTELSAT 18 (IS-18),2011-056A,2026-07-22T20:43:54.391872,1.00272080,.00019995,0.0306,264.0516,225.2474,302.2680,0,U,37834,999,5416,0,.57E-6,0
INTELSAT 22 (IS-22),2012-011A,2026-07-23T03:03:43.815744,1.00270512,.00022694,0.0336,79.7499,74.2805,264.8668,0,U,38098,999,754,0,0,0
INTELSAT 19 (IS-19),2012-030A,2026-07-23T05:13:07.424256,1.00273040,.00031004,0.0102,68.5878,51.4725,65.1705,0,U,38356,999,5081,0,-.52E-6,0
INTELSAT 20 (IS-20),2012-043A,2026-07-23T03:02:43.912032,1.00273070,.00013259,0.0134,77.3608,104.6200,233.0684,0,U,38740,999,5110,0,-.2E-6,0
INTELSAT 21 (IS-21),2012-045A,2026-07-23T05:51:59.820768,1.00270753,.00019142,0.0341,261.3991,230.7511,198.8253,0,U,38749,999,5088,0,-.28E-5,0
