INTELSAT 902 (IS-902)   
1 26900U 01039A   26204.08169595 -.00000284  00000+0  00000+0 0  9990
2 26900   6.2041  71.3386 0004265  50.8048 157.9936  1.00272197 91056
INTELSAT 904 (IS-904)   
1 27380U 02007A   26204.07058911 -.00000227  00000+0  00000+0 0  9994
2 27380   7.0068  68.7492 0005232  29.7760 196.2260  1.00273562 52124
DIRECTV 5 (TEMPO 1)     
1 27426U 02023A   26204.28243487 -.00000057  00000+0  00000+0 0  9991
2 27426   4.9672  74.8569 0003226  45.0735 172.6515  1.00272258 88489
INTELSAT 905 (IS-905)   
1 27438U 02027A   26204.27898898  .00000092  00000+0  00000+0 0  9997
2 27438   6.8414  69.3598 0003606  51.5550 143.3283  1.00273017 51725
GALAXY 3C (G-3C)        
1 27445U 02030A   26204.31999280 -.00000152  00000+0  00000+0 0  9999
2 27445   3.8250  77.5112 0001866  29.6482 214.2448  1.00271479 46856
INTELSAT 906 (IS-906)   
1 27513U 02041A   26204.12603046  .00000012  00000+0  00000+0 0  9992
2 27513   5.8901  72.4726 0003403  32.5508 305.3618  1.00271514 87387
GALAXY 13 (HORIZONS-1)  
1 27954U 03044A   26203.72717649  .00000135  00000+0  00000+0 0  9991
2 27954   1.5078  83.3980 0002074  44.1505 284.7210  1.00274659 46922
INTELSAT 10-02          
1 28358U 04022A   26204.04185667 -.00000007  00000+0  00000+0 0  9991
2 28358   0.0588 253.9699 0000211 257.9608 162.9160  1.00272395 80915
DIRECTV 8               
1 28659U 05019A   26204.31156449  .00000006  00000+0  00000+0 0  9996
2 28659   0.0133  80.7173 0003211  44.0931 169.3472  1.00271139 77430
GALAXY 28 (G-28)        
1 28702U 05022A   26204.25050907 -.00000199  00000+0  00000+0 0  9998
2 28702   3.3881  78.4837 0002310  42.2649 243.3220  1.00271632 52335
GALAXY 16 (G-16)        
1 29236U 06023A   26204.31787044 -.00000122  00000+0  00000+0 0  9995
2 29236   0.0268 126.7087 0002835 356.0510 193.7179  1.00272782 73331
DIRECTV 9S              
1 29494U 06043A   26204.28363580 -.00000111  00000+0  00000+0 0  9992
2 29494   2.5112  80.4673 0005218  35.2690 186.1854  1.00271930 51743
GALAXY 17 (G-17)        
1 31307U 07016B   26204.28768031 -.00000205  00000+0  00000+0 0  9993
2 31307   3.0600  79.4460 0003547  35.0280 205.0951  1.00272219 70162
INTELSAT 11 (IS-11)     
1 32253U 07044B   26204.10696370 -.00000239  00000+0  00000+0 0  9999
2 32253   3.6562  78.2292 0004685  98.7006 130.2930  0.99051899 68802
HORIZONS-2              
1 32388U 07063B   26204.29115641 -.00000251  00000+0  00000+0 0  9990
2 32388   2.6925  80.1837 0003694  21.8161 230.0436  1.00271930 68171
DIRECTV 11              
1 32729U 08013A   26204.31787058 -.00000121  00000+0  00000+0 0  9991
2 32729   0.0116 275.0098 0000203 171.5368 229.7433  1.00271967 45956
GALAXY 18 (G-18)        
1 32951U 08024A   26203.79488922  .00000000  00000+0  00000+0 0  9994
2 32951   0.0189  52.6571 0003152  74.3921 336.6648  1.00273574 46211
GALAXY 19 (G-19)        
1 33376U 08045A   26204.31853917 -.00000134  00000+0  00000+0 0  9997
2 33376   0.0611 250.1988 0002735 244.1926 184.3265  1.00271711 65268
FM-5                    
1 35493U 09034A   26204.02496500 -.00000195  00000+0  00000+0 0  9994
2 35493   0.0406 259.5463 0000846 130.3836 193.6336  1.00269883 47001
INTELSAT 14 (IS-14)     
1 36097U 09064A   26204.24695572 -.00000269  00000+0  00000+0 0  9994
2 36097   0.0165  55.4369 0002577  69.1356 220.3047  1.00271127 60962
INTELSAT 15 (IS-15)     
1 36106U 09067A   26204.13019049 -.00000181  00000+0  00000+0 0  9998
2 36106   0.0153  54.2150 0002396  66.5369 312.1333  1.00272165 41587
DIRECTV 12              
1 36131U 09075A   26204.28316792 -.00000099  00000+0  00000+0 0  9994
2 36131   0.0211 190.5052 0000353 356.4766 113.2508  1.00270589 46912
INTELSAT 16 (IS-16)     
1 36397U 10006A   26204.26572633 -.00000240  00000+0  00000+0 0  9998
2 36397   0.0097 359.0792 0002150 119.8103 201.5715  1.00272126 60011
XM-5                    
1 37185U 10053A   26204.32590370 -.00000018  00000+0  00000+0 0  9994
2 37185   0.0616 262.9774 0001327 309.4997  90.7012  1.00271189 57842
INTELSAT 17 (IS-17)     
1 37238U 10065B   26204.12637713  .00000003  00000+0  00000+0 0  9990
2 37238   0.0172 101.0219 0002396  20.7888 290.5478  1.00272272 53604
INTELSAT 28 (IS-28)     
1 37392U 11016A   26204.24955573 -.00000222  00000+0  00000+0 0  9992
2 37392   1.8967  82.1851 0004027  44.0862 232.8386  1.00271117 53649
INTELSAT 18 (IS-18)     
1 37834U 11056A   26203.86382398  .00000057  00000+0  00000+0 0  9998
2 37834   0.0306 264.0516 0001999 225.2474 302.2680  1.00272080 54161
INTELSAT 22 (IS-22)     
1 38098U 12011A   26204.12759046  .00000000  00000+0  00000+0 0  9999
2 38098   0.0336  79.7499 0002269  74.2805 264.8668  1.00270512  7546
INTELSAT 19 (IS-19)     
1 38356U 12030A   26204.21744704 -.00000052  00000+0  00000+0 0  9990
2 38356   0.0102  68.5878 0003100  51.4725  65.1705  1.00273040 50815
INTELSAT 20 (IS-20)     
1 38740U 12043A   26204.12689713 -.00000020  00000+0  00000+0 0  9994
2 38740   0.0134  77.3608 0001325 104.6200 233.0684  1.00273070 51100
INTELSAT 21 (IS-21)     
1 38749U 12045A   26204.24444237 -.00000280  00000+0  00000+0 0  9996
2 38749   0.0341 261.3991 0001914 230.7511 198.8253  1.00270753 50888
